OBJECT_NAME,OBJECT_ID,EPOCH,MEAN_MOTION,ECCENTRICITY,INCLINATION,RA_OF_ASC_NODE,ARG_OF_PERICENTER,MEAN_ANOMALY,EPHEMERIS_TYPE,CLASSIFICATION_TYPE,NORAD_CAT_ID,ELEMENT_SET_NO,REV_AT_EPOCH,BSTAR,MEAN_MOTION_DOT,MEAN_MOTION_DDOT
SAUDISAT 1C (SO-50),2002-058C,2026-06-17T11:49:08.407488,14.83047547,.00752655,64.5510,128.0407,262.4185,96.8368,0,U,27607,999,26450,.11042366E-3,.788E-5,0
SAUDISAT 2,2004-025F,2026-06-17T12:14:05.276256,14.56684071,.00235784,98.5508,168.5000,297.2213,62.6582,0,U,28371,999,16579,.52561834E-4,.186E-5,0
SAUDISAT 3,2007-012B,2026-06-17T19:15:53.765568,14.71425971,.0013669,98.1456,119.2037,221.7301,138.2864,0,U,31118,999,2783,.40881E-4,.202E-5,0
PISAT,2016-059B,2026-06-17T11:37:48.629568,14.68983786,.00284077,97.8179,168.9246,201.7782,158.2218,0,U,41784,999,51978,.11936225E-3,.656E-5,0
FLYING LAPTOP,2017-042G,2026-06-17T20:27:01.509984,15.01150181,.0019585,97.4687,324.3590,119.4081,240.9102,0,U,42831,999,48655,.23924E-3,.302E-4,0
SALSAT,2020-068K,2026-06-17T12:54:41.050368,15.29803905,.000804,97.8847,171.6239,306.6544,53.3955,0,U,46495,999,31541,.21821E-3,.6219E-4,0
